ZACUBE-1 (TSHEPISOSAT)  
1 39417U 13066B   26065.39536104  .00005720  00000+0  45310-3 0  9999
2 39417  97.8184  27.2032 0042035 231.0505 128.6969 15.00283693665318
WNISAT-1                
1 39423U 13066H   26065.47375857  .00002473  00000+0  45823-3 0  9992
2 39423  97.7035 222.0171 0163341 195.0076 164.6247 14.57857752651761
TRITON-1                
1 39427U 13066M   26065.83382146  .00003480  00000+0  42405-3 0  9997
2 39427  97.8297 337.9903 0089982 207.0865 152.5638 14.81177520658934
GOMX-1                  
1 39430U 13066Q   26065.82800329  .00002142  00000+0  32774-3 0  9990
2 39430  97.6567 272.7117 0130434  46.6201 314.5781 14.69084514654884
CUBEBUG-2 (LO-74)       
1 39440U 13066AA  26065.54755604  .00007643  00000+0  71771-3 0  9996
2 39440  97.8820  14.2158 0059087   9.5494 350.6833 14.92909829661674
NEE-02 KRYSAOR          
1 39441U 13066AB  26065.34825721  .00003888  00000+0  43158-3 0  9998
2 39441  97.8820   5.3792 0067976  47.8016 312.8942 14.86134829660922
FUNCUBE-1 (AO-73)       
1 39444U 13066AE  26065.85392794  .00011997  00000+0  77451-3 0  9999
2 39444  97.8191  35.3439 0036957 188.9589 171.0983 15.07846155664238
UWE-3                   
1 39446U 13066AG  26065.31888782  .00006303  00000+0  55214-3 0  9997
2 39446  97.8596  20.8378 0048711 303.9606  55.6990 14.96131276662196
BRITE-CA1 (TORONTO)     
1 40020U 14033L   26065.77492995  .00001906  00000+0  29466-3 0  9993
2 40020  97.9562 196.7031 0077781 244.3708 114.9449 14.72453630627148
DUCHIFAT-1              
1 40021U 14033M   26065.08356619  .00055499  00000+0  10109-2 0  9999
2 40021  98.0634 111.0868 0006460  95.0854 265.1132 15.49284424639710
NANOSATC-BR1            
1 40024U 14033Q   26065.64299515  .00022886  00000+0  83949-3 0  9992
2 40024  98.0845  89.1586 0004376 156.9642 203.1792 15.27977682638304
QB50P1                  
1 40025U 14033R   26065.47681514  .00011707  00000+0  60497-3 0  9991
2 40025  98.1009  69.5425 0007929 206.5522 153.5304 15.16433497637459
QB50P2                  
1 40032U 14033Y   26065.82073526  .00011604  00000+0  64933-3 0  9991
2 40032  98.0735  56.4632 0008412 150.5024 209.6682 15.13603113637172
PERSEUS-M2              
1 40037U 14033AD  26065.81615887  .00003557  00000+0  32933-3 0  9990
2 40037  97.9879  14.3667 0010150 282.4591  77.5493 14.95147348635487
PERSEUS-M1              
1 40039U 14033AF  26065.39497066  .00003567  00000+0  32945-3 0  9996
2 40039  97.9559   7.9297 0009907 281.0478  78.9628 14.95234871635278
POLYITAN-1              
1 40042U 14033AJ  26065.01056621  .00022272  00000+0  78282-3 0  9995
2 40042  98.1047  81.7660 0009106 138.2976 221.8957 15.29356282637802
